{"type": "FeatureCollection", "features": [ {"type": "Feature", "properties": {"norad_id": 54234, "name": "NOAA 21 (JPSS-2)", "group": "weather", "lat": -43.6620360816207, "lon": 104.39072486023935, "alt_km": 834.7372989813894, "timestamp": "2025-12-22T15:43:48.625671+00:00", "meta": {"OBJECT_NAME": "NOAA 21 (JPSS-2)", "OBJECT_ID": "2022-150A", "EPOCH": "2025-12-22T06:13:07.736448", "MEAN_MOTION": 14.19526634, "ECCENTRICITY": 0.00017951, "INCLINATION": 98.7476, "RA_OF_ASC_NODE": 292.4491, "ARG_OF_PERICENTER": 18.9421, "MEAN_ANOMALY": 341.1822, "EPHEMERIS_TYPE": 0, "CLASSIFICATION_TYPE": "U", "NORAD_CAT_ID": 54234, "ELEMENT_SET_NO": 999, "REV_AT_EPOCH": 16144, "BSTAR": 5.1250179e-05, "MEAN_MOTION_DOT": 6.4e-07, "MEAN_MOTION_DDOT": 0}, "tle": {"line1": "1 54234U 22150A   25356.25911732  .00000064  00000+0  51250-4 0  9995", "line2": "2 54234  98.7476 292.4491 0001795  18.9421 341.1822 14.19526634161447"}}, "geometry": {"type": "Point", "coordinates": [104.39072486023935, -43.6620360816207]}}, {"type": "Feature", "properties": {"norad_id": 54743, "name": "METEOSAT-12 (MTG-I1)", "group": "weather", "lat": -0.6075170104680206, "lon": -32.895056829661435, "alt_km": 35783.426004170884, "timestamp": "2025-12-22T15:43:48.625683+00:00", "meta": {"OBJECT_NAME": "METEOSAT-12 (MTG-I1)", "OBJECT_ID": "2022-170C", "EPOCH": "2025-12-22T06:18:54.979776", "MEAN_MOTION": 1.00270732, "ECCENTRICITY": 0.00015211, "INCLINATION": 0.6966, "RA_OF_ASC_NODE": 25.1701, "ARG_OF_PERICENTER": 239.7344, "MEAN_ANOMALY": 280.5813, "EPHEMERIS_TYPE": 0, "CLASSIFICATION_TYPE": "U", "NORAD_CAT_ID": 54743, "ELEMENT_SET_NO": 999, "REV_AT_EPOCH": 1120, "BSTAR": 0, "MEAN_MOTION_DOT": 1.4e-07, "MEAN_MOTION_DDOT": 0}, "tle": {"line1": "1 54743U 22170C   25356.26313634  .00000014  00000+0  00000+0 0  9997", "line2": "2 54743   0.6966  25.1701 0001521 239.7344 280.5813  1.00270732 11202"}}, "geometry": {"type": "Point", "coordinates": [-32.895056829661435, -0.6075170104680206]}}, {"type": "Feature", "properties": {"norad_id": 55973, "name": "TIANMU-1 03", "group": "weather", "lat": 18.39496951232444, "lon": -17.899556789555884, "alt_km": 444.6994687659835, "timestamp": "2025-12-22T15:43:48.625694+00:00", "meta": {"OBJECT_NAME": "TIANMU-1 03", "OBJECT_ID": "2023-039A", "EPOCH": "2025-12-22T07:14:29.203296", "MEAN_MOTION": 15.41186956, "ECCENTRICITY": 0.00039411, "INCLINATION": 97.5109, "RA_OF_ASC_NODE": 159.222, "ARG_OF_PERICENTER": 33.5633, "MEAN_ANOMALY": 326.5862, "EPHEMERIS_TYPE": 0, "CLASSIFICATION_TYPE": "U", "NORAD_CAT_ID": 55973, "ELEMENT_SET_NO": 999, "REV_AT_EPOCH": 15353, "BSTAR": 0.00039812485, "MEAN_MOTION_DOT": 0.00016449, "MEAN_MOTION_DDOT": 0}, "tle": {"line1": "1 55973U 23039A   25356.30172689  .00016449  00000+0  39812-3 0  9992", "line2": "2 55973  97.5109 159.2220 0003941  33.5633 326.5862 15.41186956153538"}}, "geometry": {"type": "Point", "coordinates": [-17.899556789555884, 18.39496951232444]}}, {"type": "Feature", "properties": {"norad_id": 55974, "name": "TIANMU-1 04", "group": "weather", "lat": -71.221683562299, "lon": -178.41651510642689, "alt_km": 449.35158689992477, "timestamp": "2025-12-22T15:43:48.625704+00:00", "meta": {"OBJECT_NAME": "TIANMU-1 04", "OBJECT_ID": "2023-039B", "EPOCH": "2025-12-22T06:41:51.998784", "MEAN_MOTION": 15.41527386, "ECCENTRICITY": 0.00045714, "INCLINATION": 97.504, "RA_OF_ASC_NODE": 158.3858, "ARG_OF_PERICENTER": 27.4851, "MEAN_ANOMALY": 332.6636, "EPHEMERIS_TYPE": 0, "CLASSIFICATION_TYPE": "U", "NORAD_CAT_ID": 55974, "ELEMENT_SET_NO": 999, "REV_AT_EPOCH": 15353, "BSTAR": 0.00040674247, "MEAN_MOTION_DOT": 0.00017001, "MEAN_MOTION_DDOT": 0}, "tle": {"line1": "1 55974U 23039B   25356.27907406  .00017001  00000+0  40674-3 0  9995", "line2": "2 55974  97.5040 158.3858 0004571  27.4851 332.6636 15.41527386153537"}}, "geometry": {"type": "Point", "coordinates": [-178.41651510642689, -71.221683562299]}}, {"type": "Feature", "properties": {"norad_id": 55975, "name": "TIANMU-1 05", "group": "weather", "lat": -53.80873122859523, "lon": 169.65125950559266, "alt_km": 450.49796276387315, "timestamp": "2025-12-22T15:43:48.625714+00:00", "meta": {"OBJECT_NAME": "TIANMU-1 05", "OBJECT_ID": "2023-039C", "EPOCH": "2025-12-22T06:36:59.271264", "MEAN_MOTION": 15.41142379, "ECCENTRICITY": 0.00040743, "INCLINATION": 97.5087, "RA_OF_ASC_NODE": 158.8751, "ARG_OF_PERICENTER": 52.4728, "MEAN_ANOMALY": 307.6888, "EPHEMERIS_TYPE": 0, "CLASSIFICATION_TYPE": "U", "NORAD_CAT_ID": 55975, "ELEMENT_SET_NO": 999, "REV_AT_EPOCH": 15351, "BSTAR": 0.00040052709, "MEAN_MOTION_DOT": 0.00016525, "MEAN_MOTION_DDOT": 0}, "tle": {"line1": "1 55975U 23039C   25356.27568601  .00016525  00000+0  40053-3 0  9997", "line2": "2 55975  97.5087 158.8751 0004074  52.4728 307.6888 15.41142379153519"}}, "geometry": {"type": "Point", "coordinates": [169.65125950559266, -53.80873122859523]}}, {"type": "Feature", "properties": {"norad_id": 55976, "name": "TIANMU-1 06", "group": "weather", "lat": -79.68252878913354, "lon": -153.82124413575366, "alt_km": 450.60163390072194, "timestamp": "2025-12-22T15:43:48.625727+00:00", "meta": {"OBJECT_NAME": "TIANMU-1 06", "OBJECT_ID": "2023-039D", "EPOCH": "2025-12-22T06:44:32.297568", "MEAN_MOTION": 15.41578684, "ECCENTRICITY": 0.000434, "INCLINATION": 97.5098, "RA_OF_ASC_NODE": 159.3535, "ARG_OF_PERICENTER": 46.6597, "MEAN_ANOMALY": 313.5011, "EPHEMERIS_TYPE": 0, "CLASSIFICATION_TYPE": "U", "NORAD_CAT_ID": 55976, "ELEMENT_SET_NO": 999, "REV_AT_EPOCH": 15353, "BSTAR": 0.00040204821, "MEAN_MOTION_DOT": 0.00016831, "MEAN_MOTION_DDOT": 0}, "tle": {"line1": "1 55976U 23039D   25356.28092937  .00016831  00000+0  40205-3 0  9992", "line2": "2 55976  97.5098 159.3535 0004340  46.6597 313.5011 15.41578684153531"}}, "geometry": {"type": "Point", "coordinates": [-153.82124413575366, -79.68252878913354]}}, {"type": "Feature", "properties": {"norad_id": 56232, "name": "FENGYUN 3G", "group": "weather", "lat": 15.333789404880017, "lon": -17.05334352914528, "alt_km": 397.57478570268813, "timestamp": "2025-12-22T15:43:48.625737+00:00", "meta": {"OBJECT_NAME": "FENGYUN 3G", "OBJECT_ID": "2023-055A", "EPOCH": "2025-12-22T05:47:15.098208", "MEAN_MOTION": 15.54178866, "ECCENTRICITY": 0.00092739, "INCLINATION": 49.9921, "RA_OF_ASC_NODE": 178.403, "ARG_OF_PERICENTER": 191.5009, "MEAN_ANOMALY": 168.5748, "EPHEMERIS_TYPE": 0, "CLASSIFICATION_TYPE": "U", "NORAD_CAT_ID": 56232, "ELEMENT_SET_NO": 999, "REV_AT_EPOCH": 15250, "BSTAR": 0.00053083837, "MEAN_MOTION_DOT": 0.00034992, "MEAN_MOTION_DDOT": 0}, "tle": {"line1": "1 56232U 23055A   25356.24114697  .00034992  00000+0  53084-3 0  9997", "line2": "2 56232  49.9921 178.4030 0009273 191.5009 168.5748 15.54178866152506"}}, "geometry": {"type": "Point", "coordinates": [-17.05334352914528, 15.333789404880017]}}, {"type": "Feature", "properties": {"norad_id": 57166, "name": "METEOR-M2 3", "group": "weather", "lat": -67.27995326422898, "lon": 71.30368541819638, "alt_km": 817.3444038164198, "timestamp": "2025-12-22T15:43:48.625747+00:00", "meta": {"OBJECT_NAME": "METEOR-M2 3", "OBJECT_ID": "2023-091A", "EPOCH": "2025-12-22T05:56:06.662112", "MEAN_MOTION": 14.24027222, "ECCENTRICITY": 0.00033888, "INCLINATION": 98.6364, "RA_OF_ASC_NODE": 49.6201, "ARG_OF_PERICENTER": 339.8733, "MEAN_ANOMALY": 20.2312, "EPHEMERIS_TYPE": 0, "CLASSIFICATION_TYPE": "U", "NORAD_CAT_ID": 57166, "ELEMENT_SET_NO": 999, "REV_AT_EPOCH": 12933, "BSTAR": 2.8174295e-05, "MEAN_MOTION_DOT": 2.1e-07, "MEAN_MOTION_DDOT": 0}, "tle": {"line1": "1 57166U 23091A   25356.24729933  .00000021  00000+0  28174-4 0  9998", "line2": "2 57166  98.6364  49.6201 0003388 339.8733  20.2312 14.24027222129337"}}, "geometry": {"type": "Point", "coordinates": [71.30368541819638, -67.27995326422898]}}, {"type": "Feature", "properties": {"norad_id": 57399, "name": "TIANMU-1 07", "group": "weather", "lat": -47.914719260064075, "lon": -141.85780537313784, "alt_km": 491.6010232124354, "timestamp": "2025-12-22T15:43:48.625757+00:00", "meta": {"OBJECT_NAME": "TIANMU-1 07", "OBJECT_ID": "2023-101A", "EPOCH": "2025-12-22T05:18:18.934272", "MEAN_MOTION": 15.2819816, "ECCENTRICITY": 0.00051905, "INCLINATION": 97.286, "RA_OF_ASC_NODE": 45.862, "ARG_OF_PERICENTER": 57.5268, "MEAN_ANOMALY": 302.6474, "EPHEMERIS_TYPE": 0, "CLASSIFICATION_TYPE": "U", "NORAD_CAT_ID": 57399, "ELEMENT_SET_NO": 999, "REV_AT_EPOCH": 13460, "BSTAR": 0.00029781082, "MEAN_MOTION_DOT": 8.115e-05, "MEAN_MOTION_DDOT": 0}, "tle": {"line1": "1 57399U 23101A   25356.22105248  .00008115  00000+0  29781-3 0  9999", "line2": "2 57399  97.2860  45.8620 0005190  57.5268 302.6474 15.28198160134601"}}, "geometry": {"type": "Point", "coordinates": [-141.85780537313784, -47.914719260064075]}}, {"type": "Feature", "properties": {"norad_id": 57400, "name": "TIANMU-1 08", "group": "weather", "lat": 48.84172006835401, "lon": 37.66790310632245, "alt_km": 472.0174836217702, "timestamp": "2025-12-22T15:43:48.625768+00:00", "meta": {"OBJECT_NAME": "TIANMU-1 08", "OBJECT_ID": "2023-101B", "EPOCH": "2025-12-22T06:05:09.826944", "MEAN_MOTION": 15.28180613, "ECCENTRICITY": 0.00071426, "INCLINATION": 97.2849, "RA_OF_ASC_NODE": 45.69, "ARG_OF_PERICENTER": 57.1183, "MEAN_ANOMALY": 303.0744, "EPHEMERIS_TYPE": 0, "CLASSIFICATION_TYPE": "U", "NORAD_CAT_ID": 57400, "ELEMENT_SET_NO": 999, "REV_AT_EPOCH": 13460, "BSTAR": 0.00027315101, "MEAN_MOTION_DOT": 7.435e-05, "MEAN_MOTION_DDOT": 0}, "tle": {"line1": "1 57400U 23101B   25356.25358596  .00007435  00000+0  27315-3 0  9996", "line2": "2 57400  97.2849  45.6900 0007142  57.1183 303.0744 15.28180613134600"}}, "geometry": {"type": "Point", "coordinates": [37.66790310632245, 48.84172006835401]}}]}